SENTINEL-6              
1 46984U 20086A   24187.65757984 -.00000057  00000+0  17910-4 0  9994
2 46984  66.0392 172.9068 0007954 270.2171  89.7933 12.80929730169193
